NORAD_CAT_ID,OBJECT_NAME,OBJECT_TYPE,EPOCH,MEAN_MOTION,ECCENTRICITY,INCLINATION,RA_OF_ASC_NODE,ARG_OF_PERICENTER,MEAN_ANOMALY,BSTAR,MEAN_MOTION_DOT,MEAN_MOTION_DDOT,TLE_LINE0,TLE_LINE1,TLE_LINE2,SEMIMAJOR_AXIS,PERIOD,APOGEE,PERIGEE,DECAYED
53976.0,STARLINK-5134,PAYLOAD,2024-07-10 21:06:50,15.08831953,0.000174,53.2181,48.3081,117.7327,242.3842,0.00039334,5.976e-05,0.0,0 STARLINK-5134,1 53976U 22125N   24192.87974830  .00005976  00000-0  39334-3 0  9998,2 53976  53.2181  48.3081 0001740 117.7327 242.3842 15.08831953 98067,6917.905,95.438,540.974,538.566,0.0
53976.0,STARLINK-5134,PAYLOAD,2024-07-11 00:17:36,15.08829111,0.0001714,53.2181,47.7147,111.042,249.0755,0.00044733,6.836e-05,0.0,0 STARLINK-5134,1 53976U 22125N   24193.01223079  .00006836  00000-0  44733-3 0  9992,2 53976  53.2181  47.7147 0001714 111.0420 249.0755 15.08829111 98010,6917.914,95.438,540.964,538.593,0.0
53976.0,STARLINK-5134,PAYLOAD,2024-07-11 20:57:36,15.08847048,0.0001484,53.2169,43.8514,84.0994,276.0168,-1.3354e-05,-5.01e-06,0.0,0 STARLINK-5134,1 53976U 22125N   24193.87334295 -.00000501  00000-0 -13354-4 0  9990,2 53976  53.2169  43.8514 0001484  84.0994 276.0168 15.08847048 98141,6917.859,95.437,540.75,538.697,0.0
53976.0,STARLINK-5134,PAYLOAD,2024-07-12 00:08:23,15.08843774,0.0001254,53.2167,43.2577,75.7576,284.3555,8.6798e-05,1.094e-05,0.0,0 STARLINK-5134,1 53976U 22125N   24194.00582413  .00001094  00000-0  86798-4 0  9991,2 53976  53.2167  43.2577 0001254  75.7576 284.3555 15.08843774 98234,6917.869,95.437,540.601,538.866,0.0
53976.0,STARLINK-5134,PAYLOAD,2024-07-12 06:29:55,15.08843597,0.0001188,53.2164,42.067,69.6699,290.4421,2.7601e-05,1.51e-06,0.0,0 STARLINK-5134,1 53976U 22125N   24194.27078529  .00000151  00000-0  27601-4 0  9999,2 53976  53.2164  42.0670 0001188  69.6699 290.4421 15.08843597 98206,6917.869,95.437,540.556,538.913,0.0
53976.0,STARLINK-5134,PAYLOAD,2024-07-12 20:48:24,15.08843025,0.000162,53.2177,39.3939,67.1564,292.9599,6.7516e-05,7.87e-06,0.0,0 STARLINK-5134,1 53976U 22125N   24194.86694873  .00000787  00000-0  67516-4 0  9994,2 53976  53.2177  39.3939 0001620  67.1564 292.9599 15.08843025 98368,6917.871,95.437,540.857,538.615,0.0
53976.0,STARLINK-5134,PAYLOAD,2024-07-13 20:39:11,15.08842248,0.0001331,53.2183,34.9357,96.3776,263.7368,7.0987e-05,8.42e-06,0.0,0 STARLINK-5134,1 53976U 22125N   24195.86055103  .00000842  00000-0  70987-4 0  9990,2 53976  53.2183  34.9357 0001331  96.3776 263.7368 15.08842248 98443,6917.874,95.437,540.659,538.818,0.0
53976.0,STARLINK-5134,PAYLOAD,2024-07-13 23:49:57,15.08844349,0.0001267,53.2171,34.3386,84.1115,276.0022,0.00010181,1.333e-05,0.0,0 STARLINK-5134,1 53976U 22125N   24195.99302755  .00001333  00000-0  10181-3 0  9997,2 53976  53.2171  34.3386 0001267  84.1115 276.0022 15.08844349 98534,6917.867,95.437,540.609,538.856,0.0
53976.0,STARLINK-5134,PAYLOAD,2024-07-14 06:11:30,15.08840581,0.0001202,53.2165,33.1483,84.1833,275.9296,4.2873e-05,3.95e-06,0.0,0 STARLINK-5134,1 53976U 22125N   24196.25798938  .00000395  00000-0  42873-4 0  9990,2 53976  53.2165  33.1483 0001202  84.1833 275.9296 15.08840581 98500,6917.879,95.438,540.575,538.912,0.0
53976.0,STARLINK-5134,PAYLOAD,2024-07-14 20:29:57,15.08852143,0.0001265,53.2165,30.4715,80.5307,279.5828,0.00019603,2.834e-05,0.0,0 STARLINK-5134,1 53976U 22125N   24196.85414343  .00002834  00000-0  19603-3 0  9995,2 53976  53.2165  30.4715 0001265  80.5307 279.5828 15.08852143 98590,6917.843,95.437,540.583,538.833,0.0
53976.0,STARLINK-5134,PAYLOAD,2024-07-15 12:23:49,15.08839961,0.0001384,53.2169,27.5026,87.6045,272.5106,0.00010138,1.326e-05,0.0,0 STARLINK-5134,1 53976U 22125N   24197.51654981  .00001326  00000-0  10138-3 0  9992,2 53976  53.2169  27.5026 0001384  87.6045 272.5106 15.08839961 98769,6917.881,95.438,540.703,538.788,0.0
53976.0,STARLINK-5134,PAYLOAD,2024-07-15 18:45:22,15.08836837,0.0001196,53.2155,26.311,85.0628,275.0501,2.0322e-05,3.6e-07,0.0,0 STARLINK-5134,1 53976U 22125N   24197.78151171  .00000036  00000-0  20322-4 0  9998,2 53976  53.2155  26.3110 0001196  85.0628 275.0501 15.08836837 98738,6917.89,95.438,540.582,538.928,0.0
53976.0,STARLINK-5134,PAYLOAD,2024-07-16 05:53:04,15.08845933,0.0001326,53.2169,24.2296,86.3123,273.802,7.8174e-05,9.57e-06,0.0,0 STARLINK-5134,1 53976U 22125N   24198.24518736  .00000957  00000-0  78174-4 0  9994,2 53976  53.2169  24.2296 0001326  86.3123 273.8020 15.08845933 98801,6917.862,95.437,540.645,538.81,0.0
53976.0,STARLINK-5134,PAYLOAD,2024-07-16 18:36:09,15.08850091,0.0001297,53.2166,21.8515,87.8662,272.2479,7.0704e-05,8.38e-06,0.0,0 STARLINK-5134,1 53976U 22125N   24198.77510512  .00000838  00000-0  70704-4 0  9995,2 53976  53.2166  21.8515 0001297  87.8662 272.2479 15.08850091 98886,6917.85,95.437,540.612,538.817,0.0
53976.0,STARLINK-5134,PAYLOAD,2024-07-17 12:05:24,15.08834559,0.0001313,53.2175,18.5783,102.0671,258.0468,0.00017669,2.525e-05,0.0,0 STARLINK-5134,1 53976U 22125N   24199.50375505  .00002525  00000-0  17669-3 0  9993,2 53976  53.2175  18.5783 0001313 102.0671 258.0468 15.08834559 99067,6917.897,95.438,540.67,538.854,0.0
53976.0,STARLINK-5134,PAYLOAD,2024-07-17 18:26:56,15.08838077,0.0001505,53.2184,17.3876,103.7919,256.324,2.9158e-05,1.76e-06,0.0,0 STARLINK-5134,1 53976U 22125N   24199.76871461  .00000176  00000-0  29158-4 0  9990,2 53976  53.2184  17.3876 0001505 103.7919 256.3240 15.08838077 99038,6917.886,95.438,540.792,538.71,0.0
53976.0,STARLINK-5134,PAYLOAD,2024-07-18 11:56:11,15.08837014,0.0001358,53.2187,14.1176,96.1233,263.9913,8.6991e-05,1.097e-05,0.0,0 STARLINK-5134,1 53976U 22125N   24200.49735857  .00001097  00000-0  86991-4 0  9992,2 53976  53.2187  14.1176 0001358  96.1233 263.9913 15.08837014 99142,6917.89,95.438,540.694,538.815,0.0
53976.0,STARLINK-5134,PAYLOAD,2024-07-18 18:17:43,15.08850034,0.0001375,53.2187,12.9303,83.3918,276.7231,0.00015353,2.157e-05,0.0,0 STARLINK-5134,1 53976U 22125N   24200.76231376  .00002157  00000-0  15353-3 0  9990,2 53976  53.2187  12.9303 0001375  83.3918 276.7231 15.08850034 99251,6917.85,95.437,540.666,538.764,0.0
53976.0,STARLINK-5134,PAYLOAD,2024-07-19 11:46:58,15.08839787,0.0001407,53.2181,9.6578,80.5455,279.5696,0.00032684,4.918e-05,0.0,0 STARLINK-5134,1 53976U 22125N   24201.49096048  .00004918  00000-0  32684-3 0  9999,2 53976  53.2181   9.6578 0001407  80.5455 279.5696 15.08839787 99363,6917.881,95.438,540.719,538.773,0.0
53976.0,STARLINK-5134,PAYLOAD,2024-07-19 14:57:44,15.08847796,0.0001434,53.2184,9.0659,78.2843,281.8311,0.00037943,5.757e-05,0.0,0 STARLINK-5134,1 53976U 22125N   24201.62343716  .00005757  00000-0  37943-3 0  9996,2 53976  53.2184   9.0659 0001434  78.2843 281.8311 15.08847796 99319,6917.857,95.437,540.714,538.73,0.0
53976.0,STARLINK-5134,PAYLOAD,2024-07-19 18:08:31,15.0885133,0.0001422,53.2177,8.4706,73.2183,286.8965,0.00038014,5.769e-05,0.0,0 STARLINK-5134,1 53976U 22125N   24201.75591601  .00005769  00000-0  38014-3 0  9991,2 53976  53.2177   8.4706 0001422  73.2183 286.8965 15.08851330 99337,6917.846,95.437,540.694,538.727,0.0
53976.0,STARLINK-5134,PAYLOAD,2024-07-20 14:48:32,15.08837822,0.0001428,53.2191,4.6051,106.0139,254.101,-8.799e-05,-1.688e-05,0.0,0 STARLINK-5134,1 53976U 22125N   24202.61703706 -.00001688  00000-0 -87990-4 0  9994,2 53976  53.2191   4.6051 0001428 106.0139 254.1010 15.08837822 99469,6917.887,95.438,540.74,538.764,0.0
53976.0,STARLINK-5134,PAYLOAD,2024-07-20 17:59:18,15.08841229,0.0001242,53.2186,4.0108,100.378,259.7352,9.2131e-06,-1.41e-06,0.0,0 STARLINK-5134,1 53976U 22125N   24202.74951627 -.00000141  00000-0  92131-5 0  9991,2 53976  53.2186   4.0108 0001242 100.3780 259.7352 15.08841229 99559,6917.877,95.437,540.601,538.882,0.0
53976.0,STARLINK-5134,PAYLOAD,2024-07-21 14:39:19,15.08841783,0.00017,53.2197,0.1435,99.035,261.0835,-2.689e-05,-7.16e-06,0.0,0 STARLINK-5134,1 53976U 22125N   24203.61063724 -.00000716  00000-0 -26890-4 0  9997,2 53976  53.2197   0.1435 0001700  99.0350 261.0835 15.08841783 99611,6917.875,95.437,540.916,538.564,0.0
53976.0,STARLINK-5134,PAYLOAD,2024-07-21 17:50:05,15.08843793,0.0001351,53.2193,359.5487,97.3093,262.8053,5.7796e-06,-1.96e-06,0.0,0 STARLINK-5134,1 53976U 22125N   24203.74311579 -.00000196  00000-0  57796-5 0  9996,2 53976  53.2193 359.5487 0001351  97.3093 262.8053 15.08843793 99638,6917.869,95.437,540.668,538.799,0.0
53976.0,STARLINK-5134,PAYLOAD,2024-07-22 09:43:57,15.08830501,0.0001108,53.2182,356.5738,89.9665,270.1454,0.00014455,2.013e-05,0.0,0 STARLINK-5134,1 53976U 22125N   24204.40552462  .00002013  00000-0  14455-3 0  9990,2 53976  53.2182 356.5738 0001108  89.9665 270.1454 15.08830501 99803,6917.909,95.438,540.541,539.008,0.0
53976.0,STARLINK-5134,PAYLOAD,2024-07-23 19:07:03,15.08842565,0.0001336,53.2176,350.3309,74.5993,285.5147,0.00026595,3.947e-05,0.0,0 STARLINK-5134,1 53976U 22125N   24205.79656305  .00003947  00000-0  26595-3 0  9999,2 53976  53.2176 350.3309 0001336  74.5993 285.5147 15.08842565100017,6917.873,95.437,540.662,538.813,0.0
53976.0,STARLINK-5134,PAYLOAD,2024-07-24 09:25:31,15.08832499,0.0001637,53.219,347.6561,72.2252,287.8918,1.602e-06,-2.63e-06,0.0,0 STARLINK-5134,1 53976U 22125N   24206.39273020 -.00000263  00000-0  16020-5 0  9998,2 53976  53.2190 347.6561 0001637  72.2252 287.8918 15.08832499100105,6917.903,95.438,540.901,538.636,0.0
53976.0,STARLINK-5134,PAYLOAD,2024-07-25 15:37:50,15.08851991,0.0001589,53.2169,342.0072,73.6712,286.4455,0.00026332,3.907e-05,0.0,0 STARLINK-5134,1 53976U 22125N   24207.65128179  .00003907  00000-0  26332-3 0  9994,2 53976  53.2169 342.0072 0001589  73.6712 286.4455 15.08851991100298,6917.844,95.437,540.808,538.609,0.0
53976.0,STARLINK-5134,PAYLOAD,2024-07-26 17:04:00,15.08845666,0.000158,53.2157,337.2442,89.4497,270.6677,5.0418e-05,5.15e-06,0.0,0 STARLINK-5134,1 53976U 22125N   24208.71111695  .00000515  00000-0  50418-4 0  9992,2 53976  53.2157 337.2442 0001580  89.4497 270.6677 15.08845666100381,6917.863,95.437,540.821,538.635,0.0
